H1 CPF 01  gfz 2022 01 15 01  5151 terrasarx 
H2 0702601  6201 31698    2022 01 15 00 59 42 2022 01 20 00 00 42   120 1 1  0 0 0
H9
10 0 59597  59022.000000  0   -6019586.411  -2396451.773  -2350109.533
10 0 59597  59142.000000  0   -5747007.810  -2095417.320  -3176880.349
10 0 59597  59262.000000  0   -5368756.531  -1763566.349  -3947904.383
10 0 59597  59382.000000  0   -4891049.469  -1408508.622  -4649724.391
10 0 59597  59502.000000  0   -4321956.904  -1038121.200  -5270125.554
10 0 59597  59622.000000  0   -3671254.713   -660377.314  -5798341.676
10 0 59597  59742.000000  0   -2950246.803   -283178.481  -6225231.911
10 0 59597  59862.000000  0   -2171562.616     85806.692  -6543427.209
10 0 59597  59982.000000  0   -1348933.014    439293.455  -6747446.051
10 0 59597  60102.000000  0    -496949.417    770519.439  -6833778.369
10 0 59597  60222.000000  0     369189.903   1073370.469  -6800938.693
10 0 59597  60342.000000  0    1233943.173   1342489.473  -6649489.444
10 0 59597  60462.000000  0    2081698.204   1573369.383  -6382034.784
10 0 59597  60582.000000  0    2897049.003   1762428.241  -6003180.426
10 0 59597  60702.000000  0    3665072.001   1907064.281  -5519461.566
10 0 59597  60822.000000  0    4371596.787   2005690.886  -4939240.888
10 0 59597  60942.000000  0    5003470.402   2057751.598  -4272576.019
10 0 59597  61062.000000  0    5548808.160   2063713.579  -3531054.927
10 0 59597  61182.000000  0    5997225.104   2025039.459  -2727603.081
10 0 59597  61302.000000  0    6340045.055   1944138.370  -1876264.233
10 0 59597  61422.000000  0    6570480.033   1824296.755   -991955.555
10 0 59597  61542.000000  0    6683774.875   1669589.433    -90203.803
10 0 59597  61662.000000  0    6677312.395   1484773.055    813134.085
10 0 59597  61782.000000  0    6550675.390   1275165.553   1702156.154
10 0 59597  61902.000000  0    6305667.671   1046513.658   2561204.453
10 0 59597  62022.000000  0    5946287.327    804851.264   3375150.048
10 0 59597  62142.000000  0    5478656.780    556353.757   4129666.596
10 0 59597  62262.000000  0    4910909.047    307191.202   4811486.385
10 0 59597  62382.000000  0    4253037.837     63385.368   5408634.613
10 0 59597  62502.000000  0    3516710.999   -169328.440   5910639.173
10 0 59597  62622.000000  0    2715053.726   -385628.775   6308708.860
10 0 59597  62742.000000  0    1862408.586   -580723.319   6595881.357
10 0 59597  62862.000000  0     974074.958   -750450.521   6767139.972
10 0 59597  62982.000000  0      66031.064   -891365.581   6819496.317
10 0 59597  63102.000000  0    -845353.954  -1000808.645   6752037.861
10 0 59597  63222.000000  0   -1743614.027  -1076954.931   6565942.053
10 0 59597  63342.000000  0   -2612481.993  -1118844.972   6264456.315
10 0 59597  63462.000000  0   -3436182.614  -1126394.872   5852845.865
10 0 59597  63582.000000  0   -4199721.674  -1100387.234   5338309.209
10 0 59597  63702.000000  0   -4889164.578  -1042443.342   4729858.576
10 0 59597  63822.000000  0   -5491898.212   -954975.537   4038166.824
10 0 59597  63942.000000  0   -5996869.995   -841121.131   3275383.056
10 0 59597  64062.000000  0   -6394799.116   -704659.152   2454921.252
10 0 59597  64182.000000  0   -6678358.100   -549911.771   1591224.357
10 0 59597  64302.000000  0   -6842317.429   -381632.595    699504.630
10 0 59597  64422.000000  0   -6883647.467   -204884.989   -204532.041
10 0 59597  64542.000000  0   -6801576.566    -24912.825  -1104971.605
10 0 59597  64662.000000  0   -6597602.715    152992.782  -1985981.124
10 0 59597  64782.000000  0   -6275460.527    323626.600  -2832093.417
10 0 59597  64902.000000  0   -5841045.169    481999.711  -3628485.431
10 0 59597  65022.000000  0   -5302291.241    623464.157  -4361240.989
10 0 59597  65142.000000  0   -4669014.687    743827.939  -5017592.090
10 0 59597  65262.000000  0   -3952720.926    839457.923  -5586135.569
10 0 59597  65382.000000  0   -3166385.536    907368.526  -6057022.176
10 0 59597  65502.000000  0   -2324211.858    945293.939  -6422115.719
10 0 59597  65622.000000  0   -1441372.066    951744.016  -6675122.145
10 0 59597  65742.000000  0    -533733.997    926042.888  -6811687.138
10 0 59597  65862.000000  0     382418.908    868348.884  -6829461.425
10 0 59597  65982.000000  0    1290671.316    779656.210  -6728137.929
10 0 59597  66102.000000  0    2174764.306    661778.079  -6509458.593
10 0 59597  66222.000000  0    3018880.573    517311.720  -6177187.253
10 0 59597  66342.000000  0    3807923.401    349585.982  -5737051.218
10 0 59597  66462.000000  0    4527784.238    162590.850  -5196651.914
10 0 59597  66582.000000  0    5165597.048    -39108.382  -4565345.719
10 0 59597  66702.000000  0    5709975.328   -250471.982  -3854092.796
10 0 59597  66822.000000  0    6151224.286   -466099.823  -3075275.778
10 0 59597  66942.000000  0    6481525.205   -680356.510  -2242491.527
10 0 59597  67062.000000  0    6695087.337   -887504.822  -1370316.677
10 0 59597  67182.000000  0    6788261.390  -1081843.766   -474051.353
10 0 59597  67302.000000  0    6759611.868  -1257848.419    430553.184
10 0 59597  67422.000000  0    6609946.021  -1410307.947   1327578.588
10 0 59597  67542.000000  0    6342297.160  -1534458.590   2201227.953
10 0 59597  67662.000000  0    5961863.292  -1626107.248   3036113.867
10 0 59597  67782.000000  0    5475900.956  -1681742.193   3817537.183
10 0 59597  67902.000000  0    4893579.087  -1698629.747   4531750.946
10 0 59597  68022.000000  0    4225796.730  -1674892.822   5166204.231
10 0 59597  68142.000000  0    3484970.358  -1609569.821   5709762.519
10 0 59597  68262.000000  0    2684793.616  -1502653.861   6152900.673
10 0 59597  68382.000000  0    1839977.062  -1355111.049   6487863.892
10 0 59597  68502.000000  0     965973.150  -1168878.033   6708797.986
10 0 59597  68622.000000  0      78690.226   -946837.697   6811845.972
10 0 59597  68742.000000  0    -805797.649   -692774.098   6795209.977
10 0 59597  68862.000000  0   -1671540.519   -411308.045   6659179.883
10 0 59597  68982.000000  0   -2502998.629   -107813.356   6406128.535
10 0 59597  69102.000000  0   -3285320.486    211684.744   6040473.829
10 0 59597  69222.000000  0   -4004609.840    540627.368   5568607.336
10 0 59597  69342.000000  0   -4648177.081    872053.906   4998788.620
10 0 59597  69462.000000  0   -5204769.748   1198746.298   4341006.705
10 0 59597  69582.000000  0   -5664777.785   1513382.957   3606809.016
10 0 59597  69702.000000  0   -6020407.924   1808698.735   2809101.073
10 0 59597  69822.000000  0   -6265824.699   2077647.572   1961919.975
10 0 59597  69942.000000  0   -6397254.674   2313564.056   1080184.733
10 0 59597  70062.000000  0   -6413049.727   2510320.243    179426.839
10 0 59597  70182.000000  0   -6313706.677   2662472.434   -724491.707
10 0 59597  70302.000000  0   -6101843.749   2765394.590  -1615666.726
10 0 59597  70422.000000  0   -5782134.555   2815395.609  -2478440.192
10 0 59597  70542.000000  0   -5361200.162   2809817.056  -3297683.249
10 0 59597  70662.000000  0   -4847463.134   2747107.993  -4059065.283
10 0 59597  70782.000000  0   -4250968.941   2626876.658  -4749304.502
10 0 59597  70902.000000  0   -3583179.133   2449917.621  -5356395.154
10 0 59597  71022.000000  0   -2856742.910   2218215.066  -5869807.504
10 0 59597  71142.000000  0   -2085253.006   1934922.616  -6280660.764
10 0 59597  71262.000000  0   -1282987.729   1604319.316  -6581865.926
10 0 59597  71382.000000  0    -464647.739   1231743.602  -6768235.702
10 0 59597  71502.000000  0     354908.849    823506.806  -6836564.052
10 0 59597  71622.000000  0    1160928.876    386788.275  -6785675.915
10 0 59597  71742.000000  0    1939024.703    -70488.379  -6616446.731
10 0 59597  71862.000000  0    2675425.134   -539795.564  -6331787.861
10 0 59597  71982.000000  0    3357215.072  -1012156.219  -5936602.504
10 0 59597  72102.000000  0    3972559.907  -1478310.522  -5437708.982
10 0 59597  72222.000000  0    4510912.479  -1928893.249  -4843735.207
10 0 59597  72342.000000  0    4963199.272  -2354619.833  -4164980.569
10 0 59597  72462.000000  0    5321980.633  -2746475.883  -3413247.593
10 0 59597  72582.000000  0    5581582.925  -3095906.858  -2601644.914
10 0 59597  72702.000000  0    5738198.369  -3395003.645  -1744362.770
10 0 59597  72822.000000  0    5789948.966  -3636679.388   -856425.892
10 0 59597  72942.000000  0    5736913.375  -3814833.859     46572.496
10 0 59597  73062.000000  0    5581114.421  -3924499.975    948750.303
10 0 59597  73182.000000  0    5326467.524  -3961969.967   1834224.299
10 0 59597  73302.000000  0    4978689.484  -3924894.808   2687399.876
10 0 59597  73422.000000  0    4545170.945  -3812355.384   3493253.201
10 0 59597  73542.000000  0    4034817.641  -3624904.629   4237601.716
10 0 59597  73662.000000  0    3457863.319  -3364580.222   4907358.270
10 0 59597  73782.000000  0    2825657.324  -3034885.784   5490762.351
10 0 59597  73902.000000  0    2150435.864  -2640742.068   5977584.341
10 0 59597  74022.000000  0    1445079.750  -2188410.257   6359300.546
10 0 59597  74142.000000  0     722865.052  -1685389.351   6629236.243
10 0 59597  74262.000000  0      -2788.647  -1140289.064   6782676.342
10 0 59597  74382.000000  0    -718567.651   -562680.577   6816942.378
10 0 59597  74502.000000  0   -1411507.288     37071.935   6731435.682
10 0 59597  74622.000000  0   -2069225.719    647996.838   6527647.272
10 0 59597  74742.000000  0   -2680144.615   1258714.952   6209133.639
10 0 59597  74862.000000  0   -3233693.636   1857650.471   5781458.784
10 0 59597  74982.000000  0   -3720495.912   2433250.052   5252103.564
10 0 59597  75102.000000  0   -4132531.638   2974207.195   4630341.218
10 0 59597  75222.000000  0   -4463275.794   3469686.622   3927080.059
10 0 59597  75342.000000  0   -4707807.784   3909544.009   3154675.538
10 0 59597  75462.000000  0   -4862889.096   4284536.969   2326714.168
99
